CCSDS_OMM_VERS = 2.0
CREATION_DATE  = 
ORIGINATOR     = 

OBJECT_NAME    = UNKNOWN
OBJECT_ID      = 
CENTER_NAME    = EARTH
REF_FRAME      = TEME
TIME_SYSTEM    = UTC
MEAN_ELEMENT_THEORY = SGP/SGP4

EPOCH          = 2026-01-25T03:14:52.001376
MEAN_MOTION    = 14.23152693
ECCENTRICITY   = .0028404
INCLINATION    = 82.9520
RA_OF_ASC_NODE = 157.0146
ARG_OF_PERICENTER = 41.9920
MEAN_ANOMALY   = 137.0201

EPHEMERIS_TYPE = 0
CLASSIFICATION_TYPE = U
NORAD_CAT_ID   = 82798
ELEMENT_SET_NO = 999
REV_AT_EPOCH   = 31854
BSTAR          = .17798E-2
MEAN_MOTION_DOT = .4052E-4
MEAN_MOTION_DDOT = 0

CCSDS_OMM_VERS = 2.0
CREATION_DATE  = 
ORIGINATOR     = 

OBJECT_NAME    = UNKNOWN
OBJECT_ID      = 
CENTER_NAME    = EARTH
REF_FRAME      = TEME
TIME_SYSTEM    = UTC
MEAN_ELEMENT_THEORY = SGP/SGP4

EPOCH          = 2026-01-27T04:54:57.807072
MEAN_MOTION    = 14.35362729
ECCENTRICITY   = .0049794
INCLINATION    = 99.7886
RA_OF_ASC_NODE = 198.9976
ARG_OF_PERICENTER = 244.9362
MEAN_ANOMALY   = 114.6646

EPHEMERIS_TYPE = 0
CLASSIFICATION_TYPE = U
NORAD_CAT_ID   = 82820
ELEMENT_SET_NO = 999
REV_AT_EPOCH   = 63215
BSTAR          = .23927E-2
MEAN_MOTION_DOT = .6913E-4
MEAN_MOTION_DDOT = 0

CCSDS_OMM_VERS = 2.0
CREATION_DATE  = 
ORIGINATOR     = 

OBJECT_NAME    = UNKNOWN
OBJECT_ID      = 
CENTER_NAME    = EARTH
REF_FRAME      = TEME
TIME_SYSTEM    = UTC
MEAN_ELEMENT_THEORY = SGP/SGP4

EPOCH          = 2026-01-22T06:27:59.889888
MEAN_MOTION    = 13.87971079
ECCENTRICITY   = .0129401
INCLINATION    = 82.6878
RA_OF_ASC_NODE = 32.8065
ARG_OF_PERICENTER = 165.4385
MEAN_ANOMALY   = 195.0564

EPHEMERIS_TYPE = 0
CLASSIFICATION_TYPE = U
NORAD_CAT_ID   = 82854
ELEMENT_SET_NO = 999
REV_AT_EPOCH   = 61342
BSTAR          = .17658E-2
MEAN_MOTION_DOT = .2261E-4
MEAN_MOTION_DDOT = 0

CCSDS_OMM_VERS = 2.0
CREATION_DATE  = 
ORIGINATOR     = 

OBJECT_NAME    = UNKNOWN
OBJECT_ID      = 
CENTER_NAME    = EARTH
REF_FRAME      = TEME
TIME_SYSTEM    = UTC
MEAN_ELEMENT_THEORY = SGP/SGP4

EPOCH          = 2026-01-27T13:02:14.404128
MEAN_MOTION    = 14.24830800
ECCENTRICITY   = .0037485
INCLINATION    = 99.9959
RA_OF_ASC_NODE = 292.9917
ARG_OF_PERICENTER = 154.8859
MEAN_ANOMALY   = 205.4149

EPHEMERIS_TYPE = 0
CLASSIFICATION_TYPE = U
NORAD_CAT_ID   = 82873
ELEMENT_SET_NO = 999
REV_AT_EPOCH   = 62775
BSTAR          = .21572E-2
MEAN_MOTION_DOT = .5018E-4
MEAN_MOTION_DDOT = 0

CCSDS_OMM_VERS = 2.0
CREATION_DATE  = 
ORIGINATOR     = 

OBJECT_NAME    = UNKNOWN
OBJECT_ID      = 
CENTER_NAME    = EARTH
REF_FRAME      = TEME
TIME_SYSTEM    = UTC
MEAN_ELEMENT_THEORY = SGP/SGP4

EPOCH          = 2026-01-23T16:26:11.617152
MEAN_MOTION    = 14.15224584
ECCENTRICITY   = .0378078
INCLINATION    = 98.6804
RA_OF_ASC_NODE = 11.0109
ARG_OF_PERICENTER = 162.5534
MEAN_ANOMALY   = 198.9051

EPHEMERIS_TYPE = 0
CLASSIFICATION_TYPE = U
NORAD_CAT_ID   = 82875
ELEMENT_SET_NO = 999
REV_AT_EPOCH   = 55040
BSTAR          = .20531E-3
MEAN_MOTION_DOT = .748E-5
MEAN_MOTION_DDOT = 0

CCSDS_OMM_VERS = 2.0
CREATION_DATE  = 
ORIGINATOR     = 

OBJECT_NAME    = UNKNOWN
OBJECT_ID      = 
CENTER_NAME    = EARTH
REF_FRAME      = TEME
TIME_SYSTEM    = UTC
MEAN_ELEMENT_THEORY = SGP/SGP4

EPOCH          = 2026-01-27T03:53:08.449440
MEAN_MOTION    = 14.32511771
ECCENTRICITY   = .0025518
INCLINATION    = 98.9595
RA_OF_ASC_NODE = 148.7368
ARG_OF_PERICENTER = 263.9465
MEAN_ANOMALY   = 95.8809

EPHEMERIS_TYPE = 0
CLASSIFICATION_TYPE = U
NORAD_CAT_ID   = 82893
ELEMENT_SET_NO = 999
REV_AT_EPOCH   = 43047
BSTAR          = .4918E-2
MEAN_MOTION_DOT = .13356E-3
MEAN_MOTION_DDOT = 0

CCSDS_OMM_VERS = 2.0
CREATION_DATE  = 
ORIGINATOR     = 

OBJECT_NAME    = UNKNOWN
OBJECT_ID      = 
CENTER_NAME    = EARTH
REF_FRAME      = TEME
TIME_SYSTEM    = UTC
MEAN_ELEMENT_THEORY = SGP/SGP4

EPOCH          = 2026-01-27T12:33:18.934848
MEAN_MOTION    = 13.28129060
ECCENTRICITY   = .0774773
INCLINATION    = 65.8355
RA_OF_ASC_NODE = 68.7414
ARG_OF_PERICENTER = 248.1313
MEAN_ANOMALY   = 103.5640

EPHEMERIS_TYPE = 0
CLASSIFICATION_TYPE = U
NORAD_CAT_ID   = 82912
ELEMENT_SET_NO = 999
REV_AT_EPOCH   = 58540
BSTAR          = .30171E-2
MEAN_MOTION_DOT = .7432E-4
MEAN_MOTION_DDOT = 0

CCSDS_OMM_VERS = 2.0
CREATION_DATE  = 
ORIGINATOR     = 

OBJECT_NAME    = UNKNOWN
OBJECT_ID      = 
CENTER_NAME    = EARTH
REF_FRAME      = TEME
TIME_SYSTEM    = UTC
MEAN_ELEMENT_THEORY = SGP/SGP4

EPOCH          = 2026-01-27T04:15:24.456960
MEAN_MOTION    = 13.24692838
ECCENTRICITY   = .0426461
INCLINATION    = 99.8440
RA_OF_ASC_NODE = 184.3462
ARG_OF_PERICENTER = 255.7160
MEAN_ANOMALY   = 99.6256

EPHEMERIS_TYPE = 0
CLASSIFICATION_TYPE = U
NORAD_CAT_ID   = 82961
ELEMENT_SET_NO = 999
REV_AT_EPOCH   = 56172
BSTAR          = .33996E-1
MEAN_MOTION_DOT = .23885E-3
MEAN_MOTION_DDOT = 0

CCSDS_OMM_VERS = 2.0
CREATION_DATE  = 
ORIGINATOR     = 

OBJECT_NAME    = UNKNOWN
OBJECT_ID      = 
CENTER_NAME    = EARTH
REF_FRAME      = TEME
TIME_SYSTEM    = UTC
MEAN_ELEMENT_THEORY = SGP/SGP4

EPOCH          = 2026-01-18T00:36:27.338688
MEAN_MOTION    = 13.60089172
ECCENTRICITY   = .0002263
INCLINATION    = 100.1135
RA_OF_ASC_NODE = 103.7302
ARG_OF_PERICENTER = 184.2810
MEAN_ANOMALY   = 175.8309

EPHEMERIS_TYPE = 0
CLASSIFICATION_TYPE = U
NORAD_CAT_ID   = 82965
ELEMENT_SET_NO = 999
REV_AT_EPOCH   = 52938
BSTAR          = .1304E-2
MEAN_MOTION_DOT = .927E-5
MEAN_MOTION_DDOT = 0

CCSDS_OMM_VERS = 2.0
CREATION_DATE  = 
ORIGINATOR     = 

OBJECT_NAME    = UNKNOWN
OBJECT_ID      = 
CENTER_NAME    = EARTH
REF_FRAME      = TEME
TIME_SYSTEM    = UTC
MEAN_ELEMENT_THEORY = SGP/SGP4

EPOCH          = 2026-01-27T04:41:05.370720
MEAN_MOTION    = 0.99112048
ECCENTRICITY   = .0122649
INCLINATION    = 6.0714
RA_OF_ASC_NODE = 290.2119
ARG_OF_PERICENTER = 252.7969
MEAN_ANOMALY   = 287.2299

EPHEMERIS_TYPE = 0
CLASSIFICATION_TYPE = U
NORAD_CAT_ID   = 83903
ELEMENT_SET_NO = 999
REV_AT_EPOCH   = 4411
BSTAR          = 0
MEAN_MOTION_DOT = -.104E-5
MEAN_MOTION_DDOT = 0

CCSDS_OMM_VERS = 2.0
CREATION_DATE  = 
ORIGINATOR     = 

OBJECT_NAME    = UNKNOWN
OBJECT_ID      = 
CENTER_NAME    = EARTH
REF_FRAME      = TEME
TIME_SYSTEM    = UTC
MEAN_ELEMENT_THEORY = SGP/SGP4

EPOCH          = 2026-01-20T10:32:22.549632
MEAN_MOTION    = 5.32660551
ECCENTRICITY   = .5069741
INCLINATION    = 18.2832
RA_OF_ASC_NODE = 175.2192
ARG_OF_PERICENTER = 225.7549
MEAN_ANOMALY   = 79.4387

EPHEMERIS_TYPE = 0
CLASSIFICATION_TYPE = U
NORAD_CAT_ID   = 83970
ELEMENT_SET_NO = 999
REV_AT_EPOCH   = 19827
BSTAR          = .19066E-1
MEAN_MOTION_DOT = .18377E-3
MEAN_MOTION_DDOT = 0

