UNKNOWN                 
1 82798U          26025.13532409  .00004052  00000+0  17798-2 0  9990
2 82798  82.9520 157.0146 0028404  41.9920 137.0201 14.23152693318540
UNKNOWN                 
1 82820U          26027.20483573  .00006913  00000+0  23927-2 0  9992
2 82820  99.7886 198.9976 0049794 244.9362 114.6646 14.35362729632158
UNKNOWN                 
1 82854U          26022.26944317  .00002261  00000+0  17658-2 0  9994
2 82854  82.6878  32.8065 0129401 165.4385 195.0564 13.87971079613429
UNKNOWN                 
1 82873U          26027.54322227  .00005018  00000+0  21572-2 0  9994
2 82873  99.9959 292.9917 0037485 154.8859 205.4149 14.24830800627758
UNKNOWN                 
1 82875U          26023.68485668  .00000748  00000+0  20531-3 0  9996
2 82875  98.6804  11.0109 0378078 162.5534 198.9051 14.15224584550401
UNKNOWN                 
1 82893U          26027.16190335  .00013356  00000+0  49180-2 0  9996
2 82893  98.9595 148.7368 0025518 263.9465  95.8809 14.32511771430479
UNKNOWN                 
1 82912U          26027.52313582  .00007432  00000+0  30171-2 0  9997
2 82912  65.8355  68.7414 0774773 248.1313 103.5640 13.28129060585406
UNKNOWN                 
1 82961U          26027.17736640  .00023885  00000+0  33996-1 0  9993
2 82961  99.8440 184.3462 0426461 255.7160  99.6256 13.24692838561723
UNKNOWN                 
1 82965U          26018.02531642  .00000927  00000+0  13040-2 0  9997
2 82965 100.1135 103.7302 0002263 184.2810 175.8309 13.60089172529383
UNKNOWN                 
1 83903U          26027.19520105 -.00000104  00000+0  00000+0 0  9997
2 83903   6.0714 290.2119 0122649 252.7969 287.2299  0.99112048 44114
UNKNOWN                 
1 83970U          26020.43914988  .00018377  00000+0  19066-1 0  9991
2 83970  18.2832 175.2192 5069741 225.7549  79.4387  5.32660551198274
